{
  "links" : {
    "next" : "https://api.nasa.gov/neo/rest/v1/feed?start_date=2004-06-16&end_date=2004-06-16&detailed=true&api_key=t0TVs3DtDT2H8Oy2Zy8m2eVrNsAVKAexjcZXUckd",
    "prev" : "https://api.nasa.gov/neo/rest/v1/feed?start_date=2004-06-14&end_date=2004-06-14&detailed=true&api_key=t0TVs3DtDT2H8Oy2Zy8m2eVrNsAVKAexjcZXUckd",
    "self" : "https://api.nasa.gov/neo/rest/v1/feed?start_date=2004-06-15&end_date=2004-06-15&detailed=true&api_key=t0TVs3DtDT2H8Oy2Zy8m2eVrNsAVKAexjcZXUckd"
  },
  "element_count" : 11,
  "near_earth_objects" : {
    "2004-06-15" : [ {
      "links" : {
        "self" : "https://api.nasa.gov/neo/rest/v1/neo/2467352?api_key=t0TVs3DtDT2H8Oy2Zy8m2eVrNsAVKAexjcZXUckd"
      },
      "neo_reference_id" : "2467352",
      "name" : "467352 (2003 KZ18)",
      "nasa_jpl_url" : "http://ssd.jpl.nasa.gov/sbdb.cgi?sstr=2467352",
      "absolute_magnitude_h" : 21.3,
      "estimated_diameter" : {
        "kilometers" : {
          "estimated_diameter_min" : 0.1460679643,
          "estimated_diameter_max" : 0.3266178974
        },
        "meters" : {
          "estimated_diameter_min" : 146.0679642714,
          "estimated_diameter_max" : 326.6178974458
        },
        "miles" : {
          "estimated_diameter_min" : 0.090762397,
          "estimated_diameter_max" : 0.2029508896
        },
        "feet" : {
          "estimated_diameter_min" : 479.2256199,
          "estimated_diameter_max" : 1071.581062656
        }
      },
      "is_potentially_hazardous_asteroid" : false,
      "close_approach_data" : [ {
        "close_approach_date" : "2004-06-15",
        "epoch_date_close_approach" : 1087282800000,
        "relative_velocity" : {
          "kilometers_per_second" : "19.0215658992",
          "kilometers_per_hour" : "68477.6372370394",
          "miles_per_hour" : "42549.3407598704"
        },
        "miss_distance" : {
          "astronomical" : "0.3040956469",
          "lunar" : "118.2932128906",
          "kilometers" : "45492064",
          "miles" : "28267458"
        },
        "orbiting_body" : "Earth"
      } ],
      "orbital_data" : {
        "orbit_id" : "38",
        "orbit_determination_date" : "2017-04-06 09:19:26",
        "orbit_uncertainty" : "0",
        "minimum_orbit_intersection" : ".159331",
        "jupiter_tisserand_invariant" : "6.222",
        "epoch_osculation" : "2458000.5",
        "eccentricity" : ".3306227599692891",
        "semi_major_axis" : ".9487013434463354",
        "inclination" : "23.89932941585244",
        "ascending_node_longitude" : "249.9855551551862",
        "orbital_period" : "337.5147058667853",
        "perihelion_distance" : ".6350390868895355",
        "perihelion_argument" : "154.606472342588",
        "aphelion_distance" : "1.262363600003135",
        "perihelion_time" : "2457981.510822181740",
        "mean_anomaly" : "20.25424046936739",
        "mean_motion" : "1.066620190890555",
        "equinox" : "J2000"
      }
    }, {
      "links" : {
        "self" : "https://api.nasa.gov/neo/rest/v1/neo/3767264?api_key=t0TVs3DtDT2H8Oy2Zy8m2eVrNsAVKAexjcZXUckd"
      },
      "neo_reference_id" : "3767264",
      "name" : "(2017 BS32)",
      "nasa_jpl_url" : "http://ssd.jpl.nasa.gov/sbdb.cgi?sstr=3767264",
      "absolute_magnitude_h" : 27.3,
      "estimated_diameter" : {
        "kilometers" : {
          "estimated_diameter_min" : 0.0092162655,
          "estimated_diameter_max" : 0.0206081961
        },
        "meters" : {
          "estimated_diameter_min" : 9.216265485,
          "estimated_diameter_max" : 20.6081961232
        },
        "miles" : {
          "estimated_diameter_min" : 0.0057267201,
          "estimated_diameter_max" : 0.0128053354
        },
        "feet" : {
          "estimated_diameter_min" : 30.2370924539,
          "estimated_diameter_max" : 67.6121941689
        }
      },
      "is_potentially_hazardous_asteroid" : false,
      "close_approach_data" : [ {
        "close_approach_date" : "2004-06-15",
        "epoch_date_close_approach" : 1087282800000,
        "relative_velocity" : {
          "kilometers_per_second" : "14.2037879613",
          "kilometers_per_hour" : "51133.636660666",
          "miles_per_hour" : "31772.4532906232"
        },
        "miss_distance" : {
          "astronomical" : "0.3955239452",
          "lunar" : "153.8588104248",
          "kilometers" : "59169540",
          "miles" : "36766248"
        },
        "orbiting_body" : "Earth"
      } ],
      "orbital_data" : {
        "orbit_id" : "8",
        "orbit_determination_date" : "2017-04-06 08:20:33",
        "orbit_uncertainty" : "5",
        "minimum_orbit_intersection" : ".0015645",
        "jupiter_tisserand_invariant" : "6.239",
        "epoch_osculation" : "2458000.5",
        "eccentricity" : ".3375145039646837",
        "semi_major_axis" : ".9561686515849861",
        "inclination" : "8.837241228678314",
        "ascending_node_longitude" : "313.5864885618192",
        "orbital_period" : "341.5074469950701",
        "perihelion_distance" : ".6334478634386991",
        "perihelion_argument" : "294.9864184937376",
        "aphelion_distance" : "1.278889439731273",
        "perihelion_time" : "2457859.492094592196",
        "mean_anomaly" : "148.6434524150862",
        "mean_motion" : "1.054149779653844",
        "equinox" : "J2000"
      }
    } ]
  }
}